[{"OBJECT_NAME":"CS1","OBJECT_ID":"2021-088B","EPOCH":"2026-03-09T18:02:30.253920","MEAN_MOTION":15.31848439,"ECCENTRICITY":0.00141292,"INCLINATION":97.3882,"RA_OF_ASC_NODE":132.1684,"ARG_OF_PERICENTER":78.0335,"MEAN_ANOMALY":282.249,"EPHEMERIS_TYPE":0,"CLASSIFICATION_TYPE":"U","NORAD_CAT_ID":49261,"ELEMENT_SET_NO":999,"REV_AT_EPOCH":24518,"BSTAR":0.00051175576,"MEAN_MOTION_DOT":0.00015722,"MEAN_MOTION_DDOT":0},{"OBJECT_NAME":"STARLINK-35503","OBJECT_ID":"2025-245M","EPOCH":"2026-03-09T19:52:06.749760","MEAN_MOTION":15.30211126,"ECCENTRICITY":0.00011442,"INCLINATION":53.1577,"RA_OF_ASC_NODE":283.5394,"ARG_OF_PERICENTER":108.4847,"MEAN_ANOMALY":251.6278,"EPHEMERIS_TYPE":0,"CLASSIFICATION_TYPE":"U","NORAD_CAT_ID":66245,"ELEMENT_SET_NO":999,"REV_AT_EPOCH":2122,"BSTAR":0.00098557575,"MEAN_MOTION_DOT":0.00028955,"MEAN_MOTION_DDOT":0}]
